IRIDIUM 144             
1 43249U 18030A   24173.56823513  .00000061  00000+0  14688-4 0  9991
2 43249  86.3978 233.6309 0002607  96.5950 263.5543 14.34217857326135
IRIDIUM 149             
1 43250U 18030B   24173.57457751  .00000044  00000+0  85153-5 0  9998
2 43250  86.3978 233.6034 0002484  92.7632 267.3848 14.34217850326155
IRIDIUM 157             
1 43251U 18030C   24173.59360459 -.00000024  00000+0 -15656-4 0  9999
2 43251  86.3980 233.6323 0002074  86.3259 273.8174 14.34217468326136
IRIDIUM 140             
1 43252U 18030D   24173.54286449 -.00000013  00000+0 -11801-4 0  9997
2 43252  86.3979 233.6681 0002367 103.1855 256.9605 14.34217576326183
IRIDIUM 145             
1 43253U 18030E   24173.59994839  .00000087  00000+0  23951-4 0  9990
2 43253  86.3978 233.6178 0002783  94.4323 265.7191 14.34218120326126
IRIDIUM 146             
1 43254U 18030F   24173.58092012  .00000073  00000+0  19149-4 0  9991
2 43254  86.3977 233.6407 0002509  94.1245 266.0238 14.34217950326134
IRIDIUM 148             
1 43255U 18030G   24173.54920688  .00000058  00000+0  13630-4 0  9999
2 43255  86.3978 233.6859 0002372  89.5016 270.6451 14.34217926326163
IRIDIUM 142             
1 43256U 18030H   24173.58726338  .00000225  00000+0  73125-4 0  9991
2 43256  86.3976 233.5855 0002658  94.0208 266.1292 14.34218095326136
